{
  "type": "FeatureCollection",
  "features": [
    {
      "type": "Feature",
      "properties": {
        "norad_id": 30360,
        "name": "FENGYUN 1C DEB",
        "group": "fengyun-1c-debris",
        "lat": 42.555640180475976,
        "lon": 61.416649482945566,
        "alt_km": 790.7117082831237,
        "timestamp": "2025-12-25T22:42:17.287090+00:00",
        "meta_object_name": "FENGYUN 1C DEB",
        "meta_object_id": "1999-025ABX",
        "meta_epoch": "2025-12-25T04:07:04.531008",
        "meta_mean_motion": 14.26589304,
        "meta_eccentricity": 0.0030737,
        "meta_inclination": 98.7642,
        "meta_ra_of_asc_node": 68.784,
        "meta_arg_of_pericenter": 111.94,
        "meta_mean_anomaly": 276.511,
        "meta_ephemeris_type": 0,
        "meta_classification_type": "U",
        "meta_norad_cat_id": 30360,
        "meta_element_set_no": 999,
        "meta_rev_at_epoch": 97602,
        "meta_bstar": 0.001556,
        "meta_mean_motion_dot": 3.731e-05,
        "meta_mean_motion_ddot": 0,
        "tle_line1": "1 30360U 99025ABX 25359.17158022  .00003731  00000+0  15560-2 0  9999",
        "tle_line2": "2 30360  98.7642  68.7840 0030737 111.9400 276.5110 14.26589304976027"
      },
      "geometry": {
        "type": "Point",
        "coordinates": [
          61.416649482945566,
          42.555640180475976
        ]
      }
    },
    {
      "type": "Feature",
      "properties": {
        "norad_id": 30361,
        "name": "FENGYUN 1C DEB",
        "group": "fengyun-1c-debris",
        "lat": 81.39971243022357,
        "lon": -49.92377423562268,
        "alt_km": 805.4362757572244,
        "timestamp": "2025-12-25T22:42:17.287100+00:00",
        "meta_object_name": "FENGYUN 1C DEB",
        "meta_object_id": "1999-025ABY",
        "meta_epoch": "2025-12-25T00:23:22.014528",
        "meta_mean_motion": 14.25401938,
        "meta_eccentricity": 0.00647826,
        "meta_inclination": 98.5687,
        "meta_ra_of_asc_node": 34.6623,
        "meta_arg_of_pericenter": 354.5534,
        "meta_mean_anomaly": 5.4934,
        "meta_ephemeris_type": 0,
        "meta_classification_type": "U",
        "meta_norad_cat_id": 30361,
        "meta_element_set_no": 999,
        "meta_rev_at_epoch": 97791,
        "meta_bstar": 0.00082449655,
        "meta_mean_motion_dot": 1.945e-05,
        "meta_mean_motion_ddot": 0,
        "tle_line1": "1 30361U 99025ABY 25359.01622702  .00001945  00000+0  82450-3 0  9992",
        "tle_line2": "2 30361  98.5687  34.6623 0064782 354.5534   5.4934 14.25401938977913"
      },
      "geometry": {
        "type": "Point",
        "coordinates": [
          -49.92377423562268,
          81.39971243022357
        ]
      }
    },
    {
      "type": "Feature",
      "properties": {
        "norad_id": 30362,
        "name": "FENGYUN 1C DEB",
        "group": "fengyun-1c-debris",
        "lat": 6.939270697440943,
        "lon": 103.9804868323745,
        "alt_km": 902.2951405960157,
        "timestamp": "2025-12-25T22:42:17.287110+00:00",
        "meta_object_name": "FENGYUN 1C DEB",
        "meta_object_id": "1999-025ABZ",
        "meta_epoch": "2025-12-23T05:15:11.326176",
        "meta_mean_motion": 14.11916121,
        "meta_eccentricity": 0.00950352,
        "meta_inclination": 99.0504,
        "meta_ra_of_asc_node": 280.1175,
        "meta_arg_of_pericenter": 314.7871,
        "meta_mean_anomaly": 44.5598,
        "meta_ephemeris_type": 0,
        "meta_classification_type": "U",
        "meta_norad_cat_id": 30362,
        "meta_element_set_no": 999,
        "meta_rev_at_epoch": 96316,
        "meta_bstar": 0.0025793491,
        "meta_mean_motion_dot": 4.875e-05,
        "meta_mean_motion_ddot": 0,
        "tle_line1": "1 30362U 99025ABZ 25357.21888109  .00004875  00000+0  25793-2 0  9999",
        "tle_line2": "2 30362  99.0504 280.1175 0095035 314.7871  44.5598 14.11916121963167"
      },
      "geometry": {
        "type": "Point",
        "coordinates": [
          103.9804868323745,
          6.939270697440943
        ]
      }
    },
    {
      "type": "Feature",
      "properties": {
        "norad_id": 30363,
        "name": "FENGYUN 1C DEB",
        "group": "fengyun-1c-debris",
        "lat": -53.923222749815544,
        "lon": 83.89026593362439,
        "alt_km": 810.4044770030596,
        "timestamp": "2025-12-25T22:42:17.287120+00:00",
        "meta_object_name": "FENGYUN 1C DEB",
        "meta_object_id": "1999-025ACA",
        "meta_epoch": "2025-12-25T11:05:49.714944",
        "meta_mean_motion": 14.16944438,
        "meta_eccentricity": 0.0078591,
        "meta_inclination": 99.0299,
        "meta_ra_of_asc_node": 70.7927,
        "meta_arg_of_pericenter": 2.2322,
        "meta_mean_anomaly": 357.9188,
        "meta_ephemeris_type": 0,
        "meta_classification_type": "U",
        "meta_norad_cat_id": 30363,
        "meta_element_set_no": 999,
        "meta_rev_at_epoch": 97004,
        "meta_bstar": 0.0013852,
        "meta_mean_motion_dot": 2.821e-05,
        "meta_mean_motion_ddot": 0,
        "tle_line1": "1 30363U 99025ACA 25359.46238096  .00002821  00000+0  13852-2 0  9995",
        "tle_line2": "2 30363  99.0299  70.7927 0078591   2.2322 357.9188 14.16944438970043"
      },
      "geometry": {
        "type": "Point",
        "coordinates": [
          83.89026593362439,
          -53.923222749815544
        ]
      }
    },
    {
      "type": "Feature",
      "properties": {
        "norad_id": 30364,
        "name": "FENGYUN 1C DEB",
        "group": "fengyun-1c-debris",
        "lat": 79.53033006271659,
        "lon": -135.5381904479139,
        "alt_km": 1052.047083814652,
        "timestamp": "2025-12-25T22:42:17.287130+00:00",
        "meta_object_name": "FENGYUN 1C DEB",
        "meta_object_id": "1999-025ACB",
        "meta_epoch": "2025-12-25T17:21:29.143008",
        "meta_mean_motion": 14.17375884,
        "meta_eccentricity": 0.0330294,
        "meta_inclination": 98.1382,
        "meta_ra_of_asc_node": 275.003,
        "meta_arg_of_pericenter": 282.5055,
        "meta_mean_anomaly": 103.5826,
        "meta_ephemeris_type": 0,
        "meta_classification_type": "U",
        "meta_norad_cat_id": 30364,
        "meta_element_set_no": 999,
        "meta_rev_at_epoch": 95825,
        "meta_bstar": 0.003052,
        "meta_mean_motion_dot": 0.00010553,
        "meta_mean_motion_ddot": 0,
        "tle_line1": "1 30364U 99025ACB 25359.72325397  .00010553  00000+0  30520-2 0  9998",
        "tle_line2": "2 30364  98.1382 275.0030 0330294 282.5055 103.5826 14.17375884958256"
      },
      "geometry": {
        "type": "Point",
        "coordinates": [
          -135.5381904479139,
          79.53033006271659
        ]
      }
    },
    {
      "type": "Feature",
      "properties": {
        "norad_id": 30365,
        "name": "FENGYUN 1C DEB",
        "group": "fengyun-1c-debris",
        "lat": 8.5848598089335,
        "lon": -7.339423549316993,
        "alt_km": 776.2543884456263,
        "timestamp": "2025-12-25T22:42:17.287141+00:00",
        "meta_object_name": "FENGYUN 1C DEB",
        "meta_object_id": "1999-025ACC",
        "meta_epoch": "2025-12-25T11:24:20.981376",
        "meta_mean_motion": 14.19242896,
        "meta_eccentricity": 0.0168046,
        "meta_inclination": 98.6197,
        "meta_ra_of_asc_node": 353.5145,
        "meta_arg_of_pericenter": 74.8687,
        "meta_mean_anomaly": 51.6219,
        "meta_ephemeris_type": 0,
        "meta_classification_type": "U",
        "meta_norad_cat_id": 30365,
        "meta_element_set_no": 999,
        "meta_rev_at_epoch": 97793,
        "meta_bstar": 0.00023339,
        "meta_mean_motion_dot": 5.21e-06,
        "meta_mean_motion_ddot": 0,
        "tle_line1": "1 30365U 99025ACC 25359.47524284  .00000521  00000+0  23339-3 0  9992",
        "tle_line2": "2 30365  98.6197 353.5145 0168046  74.8687  51.6219 14.19242896977935"
      },
      "geometry": {
        "type": "Point",
        "coordinates": [
          -7.339423549316993,
          8.5848598089335
        ]
      }
    },
    {
      "type": "Feature",
      "properties": {
        "norad_id": 30366,
        "name": "FENGYUN 1C DEB",
        "group": "fengyun-1c-debris",
        "lat": 54.51925598440227,
        "lon": -94.89334344364865,
        "alt_km": 799.9763517533547,
        "timestamp": "2025-12-25T22:42:17.287151+00:00",
        "meta_object_name": "FENGYUN 1C DEB",
        "meta_object_id": "1999-025ACD",
        "meta_epoch": "2025-12-25T17:33:30.676320",
        "meta_mean_motion": 14.33521453,
        "meta_eccentricity": 0.0062453,
        "meta_inclination": 98.9242,
        "meta_ra_of_asc_node": 277.6208,
        "meta_arg_of_pericenter": 180.8003,
        "meta_mean_anomaly": 209.401,
        "meta_ephemeris_type": 0,
        "meta_classification_type": "U",
        "meta_norad_cat_id": 30366,
        "meta_element_set_no": 999,
        "meta_rev_at_epoch": 98509,
        "meta_bstar": 0.00046377,
        "meta_mean_motion_dot": 1.264e-05,
        "meta_mean_motion_ddot": 0,
        "tle_line1": "1 30366U 99025ACD 25359.73160505  .00001264  00000+0  46377-3 0  9996",
        "tle_line2": "2 30366  98.9242 277.6208 0062453 180.8003 209.4010 14.33521453985094"
      },
      "geometry": {
        "type": "Point",
        "coordinates": [
          -94.89334344364865,
          54.51925598440227
        ]
      }
    }
  ]
}